STARLINK-2736_new
1 18640C 21044C   21326.17933648 -.00012018  00000-0 -80540-3 0  3266
2 18640  53.0555 317.9281 0001658  53.5305 357.0218 15.06401708    18
STARLINK-2736_old
1 28640C 21044C   21325.13003132 -.00002322  00000-0 -15556-3 0  3258
2 28640  53.0556 322.6386 0001656  55.3984  61.5522 15.06405679    15
